S-NET C                 
1 43189U 18014K   26197.30673956  .00002237  00000+0  11698-3 0  9994
2 43189  97.5365 102.1976 0008049 265.5764  94.4549 15.16883754461727
PAZ                     
1 43215U 18020A   26197.81360895  .00000917  00000+0  46838-4 0  9990
2 43215  97.4457 204.7786 0001706  87.9942 272.1488 15.19146327465501
GOES 17                 
1 43226U 18022A   26197.82249248 -.00000193  00000+0  00000+0 0  9996
2 43226   1.0113  85.2320 0000571  74.7447 341.2705  1.00270914 30729
LKW-4                   
1 43236U 18025A   26197.52058103  .00031500  00000+0  32678-3 0  9990
2 43236  97.6353  10.7486 0003384 180.7875 179.3379 15.64607766464611
ZHUHAI-1 OVS-02         
1 43440U 18040B   26197.88580771  .00003712  00000+0  14966-3 0  9998
2 43440  97.0381 213.3599 0005190 131.3827 228.7858 15.25389977457245
ZHUHAI-1 OHS-02         
1 43441U 18040C   26197.85391881  .00004141  00000+0  16203-3 0  9991
2 43441  97.0358 220.2989 0011290 120.3192 239.9166 15.26281713118803
GAOFEN-6                
1 43484U 18048A   26197.89081684  .00000386  00000+0  63124-4 0  9999
2 43484  98.0957 260.5965 0012115  76.6754 283.5805 14.76385169437770
LUOJIA-1 01             
1 43485U 18048B   26197.84273639  .00001334  00000+0  15350-3 0  9999
2 43485  97.8100 275.5545 0009668  32.7991 327.3824 14.87385256438625
PAKTES 1A               
1 43529U 18056A   26197.83977030  .00001489  00000+0  12716-3 0  9996
2 43529  98.1290 355.5915 0019764  15.0390 345.1415 14.99210139436366
PRSS-1                  
1 43530U 18056B   26197.82991209  .00000677  00000+0  91757-4 0  9992
2 43530  97.7809 264.8773 0001293  85.9015 274.2346 14.82031552432825
HAIYANG-1C              
1 43609U 18068A   26197.82585282 -.00000090  00000+0 -16410-4 0  9996
2 43609  98.5184 269.7037 0011103  13.7116 346.4368 14.34186352411331
SSTL S1-4               
1 43618U 18071A   26197.84908779  .00000465  00000+0  46038-4 0  9995
2 43618  97.4982  68.2229 0002370  95.7258 264.4234 14.96204859427376
HAIYANG-2B              
1 43655U 18081A   26197.83133950  .00000079  00000+0  11996-3 0  9992
2 43655  99.3284 206.1406 0000970 145.4783 214.6432 13.79306899389015
CFOSAT                  
1 43662U 18083A   26196.92928442  .00001708  00000+0  90896-4 0  9996
2 43662  97.3616 200.6163 0001830  75.6723 284.4713 15.16538301426795
TEN-KOH                 
1 43677U 18084G   26197.48329191  .00001551  00000+0  11998-3 0  9992
2 43677  98.0762  31.0792 0009811  26.6983 333.4744 15.03050581420569
DIWATA-2B               
1 43678U 18084H   26197.84468619  .00001039  00000+0  87453-4 0  9993
2 43678  98.1211  35.3517 0012743  79.3349 280.9308 15.00567033420666
STARS-AO                
1 43679U 18084J   26197.55401231  .00003284  00000+0  16833-3 0  9996
2 43679  98.0470  53.3377 0003546  78.1495 282.0134 15.17353335421923
AUTCUBE 2               
1 43681U 18084K   26197.51651132  .00002035  00000+0  12867-3 0  9998
2 43681  98.0687  45.2468 0007681 309.5924  50.4625 15.10270898421353
METOP-C                 
1 43689U 18087A   26196.57486992  .00000053  00000+0  44045-4 0  9996
2 43689  98.6630 255.6574 0002216  93.2289 266.9142 14.21519167398863
ES'HAIL 2               
1 43700U 18090A   26197.81780765  .00000134  00000+0  00000+0 0  9995
2 43700   0.0155  59.1855 0002282  99.7063  95.9377  1.00271843 27979
MOHAMMED VI-B           
1 43717U 18095A   26197.84790742  .00000425  00000+0  67438-4 0  9993
2 43717  97.9550 269.7623 0001767  91.7524 268.3889 14.77083253412565
HYSIS                   
1 43719U 18096A   26197.85111559  .00000003  00000+0  74548-5 0  9993
2 43719  97.9829 264.3643 0001816  82.0481 278.0936 14.78670460411809
COSMOS 2530 (RODNIK-S *)
1 43751U 18097A   26197.83874486  .00000148  00000+0  99674-3 0  9998
2 43751  82.5115 203.8780 0018917 335.2983  24.7189 12.42882534345979
COSMOS 2531 (RODNIK-S *)
1 43752U 18097B   26197.86028641  .00000080  00000+0  50916-3 0  9997
2 43752  82.5160 204.9331 0016527 355.3787   4.7138 12.42913624345993
COSMOS 2532 (RODNIK-S *)
1 43753U 18097C   26197.88862037  .00000135  00000+0  90256-3 0  9997
2 43753  82.5105 203.6880 0017973 357.1282   2.9691 12.42911226345961
MINXSS-2                
1 43758U 18099A   26197.18236201  .00023169  00000+0  43069-3 0  9997
2 43758  97.4528 274.3566 0008543 157.2726 202.8905 15.48867095418616
SIRION PATHFINDER-2     
1 43759U 18099B   26197.64576084  .00001892  00000+0  10542-3 0  9994
2 43759  97.4236 246.0049 0008606 186.2645 173.8481 15.14783275417083
AISTECHSAT 2            
1 43768U 18099L   26197.66717194  .00002953  00000+0  15836-3 0  9995
2 43768  97.4275 245.0581 0004826 175.6528 184.4748 15.15723103416749
FOX-1CLIFF (AO-95)      
1 43770U 18099N   26197.63136953  .00006267  00000+0  23706-3 0  9990
2 43770  97.4366 257.7786 0007367 233.9114 126.1444 15.27291830417716
RANGE-A                 
1 43773U 18099R   26197.59857213  .00002521  00000+0  14384-3 0  9998
2 43773  97.3949 239.3190 0008791 239.1276 120.9091 15.13614526416949
